STARLETTE               
1 07646U 75010A   23178.82387668 -.00000145  00000+0  47616-6 0  9995
2 07646  49.8242  68.6322 0205622  77.5772 284.8047 13.82319324444396
LAGEOS 1                
1 08820U 76039A   23178.48292449  .00000020  00000+0  00000+0 0  9996
2 08820 109.8060 167.4579 0044954 175.3640 310.5760  6.38664676844218
AJISAI (EGS)            
1 16908U 86061A   23179.21306547 -.00000084  00000+0  90677-4 0  9990
2 16908  50.0079 243.6257 0011252 298.2419 265.7753 12.44500977345637
COSMOS 1989 (ETALON 1)  
1 19751U 89001C   23179.12417134  .00000005  00000+0  00000+0 0  9999
2 19751  64.4131 109.4575 0023991 214.7268 155.9478  2.13156233268314
COSMOS 2024 (ETALON 2)  
1 20026U 89039C   23178.69273745 -.00000041  00000+0  00000+0 0  9997
2 20026  65.4683 347.6561 0018815 217.9569 154.2289  2.13204426265354
LAGEOS 2                
1 22195U 92070B   23178.48500301 -.00000009  00000+0  00000+0 0  9997
2 22195  52.6409 232.7989 0138841  72.5406  16.5900  6.47294135725338
STELLA                  
1 22824U 93061B   23178.42996519 -.00000026  00000+0  84385-5 0  9994
2 22824  98.9272 213.1407 0007003 142.4803 331.9938 14.27406100550031
LARES                   
1 38077U 12006A   23179.14516708 -.00000043  00000+0 -30226-4 0  9993
2 38077  69.4913 345.5899 0009899 331.5996  28.4490 12.54931150521032
